{"epoch":1784799577,"count":18318,"objects":[{"id":"47282","name":"ONEWEB-0136","type":"PAYLOAD","l1":"1 47282U 20100AA  26203.79431739 -.00000346  00000-0 -99689-3 0  9991","l2":"2 47282  87.8979 343.5718 0002171 100.9088 259.2285 13.12442334269334"},{"id":"47283","name":"ONEWEB-0137","type":"PAYLOAD","l1":"1 47283U 20100AB  26203.29454117  .00000418  00000-0  11266-2 0  9994","l2":"2 47283  87.8984 343.6830 0001776  93.6253 266.5079 13.12444548269172"},{"id":"47284","name":"ONEWEB-0138","type":"PAYLOAD","l1":"1 47284U 20100AC  26203.80617947 -.00000407  00000-0 -11658-2 0  9999","l2":"2 47284  87.8982 343.5853 0002063  98.7938 261.3425 13.12443337269321"},{"id":"47285","name":"ONEWEB-0139","type":"PAYLOAD","l1":"1 47285U 20100AD  26203.84699361  .00000425  00000-0  11455-2 0  9997","l2":"2 47285  87.8984 343.5648 0001860  92.5891 267.5451 13.12442091269402"},{"id":"47286","name":"ONEWEB-0140","type":"PAYLOAD","l1":"1 47286U 20100AE  26203.64862052 -.00000353  00000-0 -10177-2 0  9997","l2":"2 47286  87.8983 343.5943 0001823 102.7275 257.4057 13.12443150269349"},{"id":"47287","name":"ONEWEB-0141","type":"PAYLOAD","l1":"1 47287U 20100AF  26203.61798679  .00000396  00000-0  10648-2 0  9996","l2":"2 47287  87.8982 343.6053 0001771  88.3655 271.7676 13.12443397269322"},{"id":"47288","name":"ONEWEB-0142","type":"PAYLOAD","l1":"1 47288U 20100AG  26203.83511663  .00000382  00000-0  10276-2 0  9999","l2":"2 47288  87.8975 343.5812 0002060  86.2054 273.9310 13.12444505269342"},{"id":"47289","name":"ONEWEB-0143","type":"PAYLOAD","l1":"1 47289U 20100AH  26203.69267337  .00000376  00000-0  10086-2 0  9992","l2":"2 47289  87.8975 343.6095 0001821  96.9965 263.1371 13.12442805269305"},{"id":"47290","name":"ONEWEB-0144","type":"PAYLOAD","l1":"1 47290U 20100AJ  26203.81634803 -.00000152  00000-0 -45742-3 0  9996","l2":"2 47290  87.8984 343.5614 0002208  95.0094 265.1287 13.12444096269241"},{"id":"47291","name":"ONEWEB-0145","type":"PAYLOAD","l1":"1 47291U 20100AK  26203.63506778 -.00000137  00000-0 -41653-3 0  9996","l2":"2 47291  87.8973 343.6212 0001919  96.1031 264.0316 13.12442636269414"},{"id":"47292","name":"ONEWEB-0146","type":"PAYLOAD","l1":"1 47292U 20100AL  26203.86039316  .00000103  00000-0  25112-3 0  9994","l2":"2 47292  87.8977 343.5701 0001564 102.9782 257.1521 13.12443073269356"},{"id":"47293","name":"ONEWEB-0147","type":"PAYLOAD","l1":"1 47293U 20100AM  26203.82650996  .00000221  00000-0  57758-3 0  9996","l2":"2 47293  87.8981 343.5599 0001928 101.4311 258.7035 13.12444617269243"},{"id":"48042","name":"ONEWEB-0115","type":"PAYLOAD","l1":"1 48042U 21025A   26203.59832924  .00000328  00000-0  86359-3 0  9990","l2":"2 48042  87.8987 313.1782 0001878 100.7159 259.4182 13.13472144258241"},{"id":"48043","name":"ONEWEB-0152","type":"PAYLOAD","l1":"1 48043U 21025B   26203.53564244  .00000277  00000-0  72342-3 0  9992","l2":"2 48043  87.8992 313.1897 0001891 103.3445 256.7896 13.13473552258197"},{"id":"48044","name":"ONEWEB-0153","type":"PAYLOAD","l1":"1 48044U 21025C   26203.74218805  .00000079  00000-0  18190-3 0  9996","l2":"2 48044  87.8978 313.1484 0002007  98.5609 261.5748 13.13469827258214"},{"id":"48045","name":"ONEWEB-0154","type":"PAYLOAD","l1":"1 48045U 21025D   26203.73880040  .00000064  00000-0  14120-3 0  9995","l2":"2 48045  87.8984 313.1489 0002063 105.0748 255.0610 13.13470640258173"}]}